CCSDS_OMM_VERS = 2.0
CREATION_DATE  = 
ORIGINATOR     = 

OBJECT_NAME    = STARLINK-36623
OBJECT_ID      = 2026-020AD
CENTER_NAME    = EARTH
REF_FRAME      = TEME
TIME_SYSTEM    = UTC
MEAN_ELEMENT_THEORY = SGP/SGP4

EPOCH          = 2026-01-30T08:15:55.399680
MEAN_MOTION    = 16.02007763
ECCENTRICITY   = .00069
INCLINATION    = 43.0100
RA_OF_ASC_NODE = 17.8878
ARG_OF_PERICENTER = 318.5000
MEAN_ANOMALY   = 14.7500

EPHEMERIS_TYPE = 0
CLASSIFICATION_TYPE = U
NORAD_CAT_ID   = 67644
ELEMENT_SET_NO = 999
REV_AT_EPOCH   = 1
BSTAR          = 0
MEAN_MOTION_DOT = -.2705E-4
MEAN_MOTION_DDOT = .8550678E-5

CCSDS_OMM_VERS = 2.0
CREATION_DATE  = 
ORIGINATOR     = 

OBJECT_NAME    = STARLINK-36619
OBJECT_ID      = 2026-020AE
CENTER_NAME    = EARTH
REF_FRAME      = TEME
TIME_SYSTEM    = UTC
MEAN_ELEMENT_THEORY = SGP/SGP4

EPOCH          = 2026-01-30T08:15:55.399680
MEAN_MOTION    = 16.02007763
ECCENTRICITY   = .00069
INCLINATION    = 43.0100
RA_OF_ASC_NODE = 17.8878
ARG_OF_PERICENTER = 318.5000
MEAN_ANOMALY   = 14.7500

EPHEMERIS_TYPE = 0
CLASSIFICATION_TYPE = U
NORAD_CAT_ID   = 67645
ELEMENT_SET_NO = 999
REV_AT_EPOCH   = 1
BSTAR          = 0
MEAN_MOTION_DOT = -.2705E-4
MEAN_MOTION_DDOT = .8550678E-5

CCSDS_OMM_VERS = 2.0
CREATION_DATE  = 
ORIGINATOR     = 

OBJECT_NAME    = ALSAT-3B
OBJECT_ID      = 2026-021A
CENTER_NAME    = EARTH
REF_FRAME      = TEME
TIME_SYSTEM    = UTC
MEAN_ELEMENT_THEORY = SGP/SGP4

EPOCH          = 2026-02-04T19:25:24.205152
MEAN_MOTION    = 15.23429233
ECCENTRICITY   = .0011391
INCLINATION    = 97.4729
RA_OF_ASC_NODE = 110.2862
ARG_OF_PERICENTER = 248.1269
MEAN_ANOMALY   = 111.8757

EPHEMERIS_TYPE = 0
CLASSIFICATION_TYPE = U
NORAD_CAT_ID   = 67646
ELEMENT_SET_NO = 999
REV_AT_EPOCH   = 71
BSTAR          = .36558E-3
MEAN_MOTION_DOT = .8652E-4
MEAN_MOTION_DDOT = 0

CCSDS_OMM_VERS = 2.0
CREATION_DATE  = 
ORIGINATOR     = 

OBJECT_NAME    = CZ-2C R/B
OBJECT_ID      = 2026-021B
CENTER_NAME    = EARTH
REF_FRAME      = TEME
TIME_SYSTEM    = UTC
MEAN_ELEMENT_THEORY = SGP/SGP4

EPOCH          = 2026-02-04T19:27:40.336992
MEAN_MOTION    = 15.23148251
ECCENTRICITY   = .0154214
INCLINATION    = 97.6571
RA_OF_ASC_NODE = 110.6163
ARG_OF_PERICENTER = 125.3876
MEAN_ANOMALY   = 236.1879

EPHEMERIS_TYPE = 0
CLASSIFICATION_TYPE = U
NORAD_CAT_ID   = 67647
ELEMENT_SET_NO = 999
REV_AT_EPOCH   = 69
BSTAR          = .49711E-3
MEAN_MOTION_DOT = .1635E-3
MEAN_MOTION_DDOT = 0

