STARLINK-36623          
1 67644U 26020AD  26030.34439120 -.00002705  85507-5  00000+0 0  9998
2 67644  43.0100  17.8878 0006900 318.5000  14.7500 16.02007763    18
STARLINK-36619          
1 67645U 26020AE  26030.34439120 -.00002705  85507-5  00000+0 0  9999
2 67645  43.0100  17.8878 0006900 318.5000  14.7500 16.02007763    19
ALSAT-3B                
1 67646U 26021A   26035.80930793  .00008652  00000+0  36558-3 0  9995
2 67646  97.4729 110.2862 0011391 248.1269 111.8757 15.23429233   718
CZ-2C R/B               
1 67647U 26021B   26035.81088353  .00016350  00000+0  49711-3 0  9992
2 67647  97.6571 110.6163 0154214 125.3876 236.1879 15.23148251   697
